{
  "norad_id": 65182,
  "name": "STARLINK-34944",
  "history": [
    {
      "epoch": "2026-03-28T22:16:13.399104Z",
      "apogee_km": 551.0011060573243,
      "perigee_km": 547.9702711310638,
      "latitude_deg": -6.126832512439803e-07,
      "longitude_deg": 161.19662218213614,
      "height_km": 552.3021593905809,
      "semi_major_axis_km": 6927.622688594194,
      "eccentricity": 0.00021875,
      "inclination_deg": 97.6042,
      "raan_deg": 321.5938,
      "arg_perigee_deg": 80.6929,
      "mean_anomaly_deg": 279.4545,
      "mean_motion_rev_day": 15.05658302
    },
    {
      "epoch": "2026-03-29T04:39:01.499040Z",
      "apogee_km": 551.0762794410612,
      "perigee_km": 547.9075819681566,
      "latitude_deg": 6.411335272272e-05,
      "longitude_deg": 65.4961788283398,
      "height_km": 552.466662550964,
      "semi_major_axis_km": 6927.628930704608,
      "eccentricity": 0.0002287,
      "inclination_deg": 97.6048,
      "raan_deg": 321.8558,
      "arg_perigee_deg": 86.8666,
      "mean_anomaly_deg": 273.2823,
      "mean_motion_rev_day": 15.05656267
    },
    {
      "epoch": "2026-03-30T04:34:31.536192Z",
      "apogee_km": 551.1237996419577,
      "perigee_km": 547.8811101659057,
      "latitude_deg": 1.0986928972653988e-05,
      "longitude_deg": 66.62126645268361,
      "height_km": 552.5615095029447,
      "semi_major_axis_km": 6927.639454903931,
      "eccentricity": 0.00023404,
      "inclination_deg": 97.6048,
      "raan_deg": 322.8386,
      "arg_perigee_deg": 89.9223,
      "mean_anomaly_deg": 270.2272,
      "mean_motion_rev_day": 15.05652836
    },
    {
      "epoch": "2026-03-30T14:08:43.625184Z",
      "apogee_km": 551.1789560499692,
      "perigee_km": 547.8302726464262,
      "latitude_deg": -2.3504615430316755e-05,
      "longitude_deg": -76.92912625636697,
      "height_km": 552.3991019110114,
      "semi_major_axis_km": 6927.641614348197,
      "eccentricity": 0.00024169,
      "inclination_deg": 97.6045,
      "raan_deg": 323.2316,
      "arg_perigee_deg": 84.2886,
      "mean_anomaly_deg": 275.8616,
      "mean_motion_rev_day": 15.05652132
    },
    {
      "epoch": "2026-03-30T22:07:13.584000Z",
      "apogee_km": 551.1680489020519,
      "perigee_km": 547.8141070443817,
      "latitude_deg": -1.67000435779153e-05,
      "longitude_deg": 163.44602368191232,
      "height_km": 552.3576171691852,
      "semi_major_axis_km": 6927.628077973216,
      "eccentricity": 0.00024207,
      "inclination_deg": 97.6043,
      "raan_deg": 323.5591,
      "arg_perigee_deg": 83.3369,
      "mean_anomaly_deg": 276.8133,
      "mean_motion_rev_day": 15.05656545
    },
    {
      "epoch": "2026-03-31T04:30:01.704672Z",
      "apogee_km": 551.1523311236215,
      "perigee_km": 547.8741670257587,
      "latitude_deg": 2.9270976213588308e-05,
      "longitude_deg": 67.74569646528398,
      "height_km": 552.4286835085346,
      "semi_major_axis_km": 6927.65024907469,
      "eccentricity": 0.0002366,
      "inclination_deg": 97.6051,
      "raan_deg": 323.8213,
      "arg_perigee_deg": 84.8987,
      "mean_anomaly_deg": 275.251,
      "mean_motion_rev_day": 15.05649317
    },
    {
      "epoch": "2026-04-01T17:11:07.543392Z",
      "apogee_km": 551.2275668897273,
      "perigee_km": 547.7595950208997,
      "latitude_deg": 1.2526668242820159e-05,
      "longitude_deg": -122.52812486309341,
      "height_km": 552.3716918388992,
      "semi_major_axis_km": 6927.630580955313,
      "eccentricity": 0.0002503,
      "inclination_deg": 97.6047,
      "raan_deg": 325.3284,
      "arg_perigee_deg": 83.9472,
      "mean_anomaly_deg": 276.204,
      "mean_motion_rev_day": 15.05655729
    },
    {
      "epoch": "2026-04-02T13:55:13.662336Z",
      "apogee_km": 551.3845862959752,
      "perigee_km": 547.6117961708296,
      "latitude_deg": 2.5280828961379103e-06,
      "longitude_deg": -73.55337592852624,
      "height_km": 552.4301839590449,
      "semi_major_axis_km": 6927.635191233402,
      "eccentricity": 0.0002723,
      "inclination_deg": 97.6038,
      "raan_deg": 326.1802,
      "arg_perigee_deg": 86.0917,
      "mean_anomaly_deg": 274.0621,
      "mean_motion_rev_day": 15.05654226
    },
    {
      "epoch": "2026-04-02T21:53:43.615104Z",
      "apogee_km": 551.3706910069905,
      "perigee_km": 547.5992935943832,
      "latitude_deg": 5.336214350780893e-05,
      "longitude_deg": 166.8209932808236,
      "height_km": 552.4886204583635,
      "semi_major_axis_km": 6927.6219923006865,
      "eccentricity": 0.0002722,
      "inclination_deg": 97.6043,
      "raan_deg": 326.5069,
      "arg_perigee_deg": 88.2699,
      "mean_anomaly_deg": 271.884,
      "mean_motion_rev_day": 15.05658529
    },
    {
      "epoch": "2026-04-03T15:26:25.592928Z",
      "apogee_km": 551.3996083814882,
      "perigee_km": 547.5880259058958,
      "latitude_deg": -5.49432606976444e-05,
      "longitude_deg": -96.35344722004672,
      "height_km": 552.3784788376609,
      "semi_major_axis_km": 6927.630817143691,
      "eccentricity": 0.0002751,
      "inclination_deg": 97.6039,
      "raan_deg": 327.2279,
      "arg_perigee_deg": 84.7053,
      "mean_anomaly_deg": 275.4487,
      "mean_motion_rev_day": 15.05655652
    },
    {
      "epoch": "2026-04-04T15:21:55.647360Z",
      "apogee_km": 551.4858325068026,
      "perigee_km": 547.501059474268,
      "latitude_deg": 3.9170041948505866e-05,
      "longitude_deg": -95.22895260687376,
      "height_km": 552.3571245385341,
      "semi_major_axis_km": 6927.630445990535,
      "eccentricity": 0.0002876,
      "inclination_deg": 97.603,
      "raan_deg": 328.2102,
      "arg_perigee_deg": 84.3364,
      "mean_anomaly_deg": 275.8191,
      "mean_motion_rev_day": 15.05655773
    },
    {
      "epoch": "2026-04-05T13:41:44.255040Z",
      "apogee_km": 551.5309531282091,
      "perigee_km": 547.5275933422326,
      "latitude_deg": 2.8044512083095902e-05,
      "longitude_deg": -70.18095193997893,
      "height_km": 552.4311751793064,
      "semi_major_axis_km": 6927.666273235221,
      "eccentricity": 0.00028894,
      "inclination_deg": 97.6029,
      "raan_deg": 329.1278,
      "arg_perigee_deg": 85.4623,
      "mean_anomaly_deg": 274.6934,
      "mean_motion_rev_day": 15.05644093
    },
    {
      "epoch": "2026-04-05T15:17:26.269440Z",
      "apogee_km": 551.4400634719368,
      "perigee_km": 547.63538451352,
      "latitude_deg": -5.636300869777245e-05,
      "longitude_deg": -94.10630534037658,
      "height_km": 552.4657346952928,
      "semi_major_axis_km": 6927.674723992728,
      "eccentricity": 0.0002746,
      "inclination_deg": 97.6032,
      "raan_deg": 329.193,
      "arg_perigee_deg": 86.0053,
      "mean_anomaly_deg": 274.1487,
      "mean_motion_rev_day": 15.05641338
    },
    {
      "epoch": "2026-04-06T05:38:44.370528Z",
      "apogee_km": 551.4583222717656,
      "perigee_km": 547.5602742526598,
      "latitude_deg": 2.5593009701642457e-05,
      "longitude_deg": 50.56812129132399,
      "height_km": 552.3946111490663,
      "semi_major_axis_km": 6927.646298262212,
      "eccentricity": 0.00028134,
      "inclination_deg": 97.6027,
      "raan_deg": 329.7824,
      "arg_perigee_deg": 84.8453,
      "mean_anomaly_deg": 275.3095,
      "mean_motion_rev_day": 15.05650605
    },
    {
      "epoch": "2026-04-07T08:45:38.253312Z",
      "apogee_km": 551.5070983245696,
      "perigee_km": 547.4641377646785,
      "latitude_deg": 6.267955418571552e-05,
      "longitude_deg": 3.843429656201062,
      "height_km": 552.344840278519,
      "semi_major_axis_km": 6927.622618044624,
      "eccentricity": 0.0002918,
      "inclination_deg": 97.6031,
      "raan_deg": 330.8958,
      "arg_perigee_deg": 84.2936,
      "mean_anomaly_deg": 275.8624,
      "mean_motion_rev_day": 15.05658325
    },
    {
      "epoch": "2026-04-08T15:03:56.105280Z",
      "apogee_km": 551.522522721646,
      "perigee_km": 547.4900801087579,
      "latitude_deg": 3.187768362003362e-05,
      "longitude_deg": -90.73123369179575,
      "height_km": 552.3220055714265,
      "semi_major_axis_km": 6927.643301415202,
      "eccentricity": 0.00029104,
      "inclination_deg": 97.6028,
      "raan_deg": 332.1401,
      "arg_perigee_deg": 83.0337,
      "mean_anomaly_deg": 277.1221,
      "mean_motion_rev_day": 15.05651582
    },
    {
      "epoch": "2026-04-09T21:22:14.028096Z",
      "apogee_km": 551.4232879131969,
      "perigee_km": 547.5770637531741,
      "latitude_deg": -9.607232820370159e-06,
      "longitude_deg": 174.69400843044957,
      "height_km": 552.3131671307383,
      "semi_major_axis_km": 6927.637175833185,
      "eccentricity": 0.0002776,
      "inclination_deg": 97.6029,
      "raan_deg": 333.3846,
      "arg_perigee_deg": 82.6053,
      "mean_anomaly_deg": 277.5489,
      "mean_motion_rev_day": 15.05653579
    },
    {
      "epoch": "2026-04-10T08:32:07.893024Z",
      "apogee_km": 551.3717074322476,
      "perigee_km": 547.6086203568202,
      "latitude_deg": -1.0080215788362548e-05,
      "longitude_deg": 7.219441410156151,
      "height_km": 552.3004635701052,
      "semi_major_axis_km": 6927.627163894534,
      "eccentricity": 0.0002716,
      "inclination_deg": 97.6028,
      "raan_deg": 333.843,
      "arg_perigee_deg": 82.3546,
      "mean_anomaly_deg": 277.7989,
      "mean_motion_rev_day": 15.05656843
    },
    {
      "epoch": "2026-04-11T21:13:14.123136Z",
      "apogee_km": 551.3487305252002,
      "perigee_km": 547.6853870589093,
      "latitude_deg": 1.0059328836973291e-05,
      "longitude_deg": 176.94327498297937,
      "height_km": 552.2923171179897,
      "semi_major_axis_km": 6927.6540587920545,
      "eccentricity": 0.0002644,
      "inclination_deg": 97.6031,
      "raan_deg": 335.3494,
      "arg_perigee_deg": 81.0334,
      "mean_anomaly_deg": 279.1192,
      "mean_motion_rev_day": 15.05648075
    }
  ]
}